BEIDOU-3 M13 (C32)      
1 43622U 18072A   24189.14553213 -.00000049  00000+0  00000+0 0  9995
2 43622  56.0077  86.2138 0006536 312.2258  47.7582  1.86231638 39435
GSAT0203 (PRN E26)      
1 40544U 15017A   24188.85976533 -.00000101  00000+0  00000+0 0  9991
2 40544  56.9252   0.9325 0001630 246.0658 113.9215  1.70476147 57751
GSAT0204 (PRN E22)      
1 40545U 15017B   24187.94083979 -.00000101  00000+0  00000+0 0  9994
2 40545  56.9310   0.9730 0001971 210.0903 149.9044  1.70475764 57741
GSAT0205 (PRN E24)      
1 40889U 15045A   24185.94931345  .00000040  00000+0  00000+0 0  9994
2 40889  55.2098 241.3070 0002869  18.6742 341.4317  1.70473894 54858
GSAT0206 (PRN E30)      
1 40890U 15045B   24189.10288720  .00000030  00000+0  00000+0 0  9999
2 40890  55.2073 241.2153 0001167 354.8047   5.2893  1.70473934 54935
GSAT0209 (PRN E09)      
1 41174U 15079A   24188.68595814 -.00000023  00000+0  00000+0 0  9992
2 41174  55.4334 120.7795 0004681 322.8191  37.1117  1.70473923 52664
GSAT0208 (PRN E08)      
1 41175U 15079B   24189.49231383 -.00000018  00000+0  00000+0 0  9995
2 41175  55.4321 120.7551 0004193 321.4885  38.4505  1.70473961 53257
GSAT0211 (PRN E02)      
1 41549U 16030A   24187.85542124  .00000035  00000+0  00000+0 0  9992
2 41549  55.3561 241.2631 0003115 303.3769  56.6911  1.70473792 50520
GSAT0210 (PRN E01)      
1 41550U 16030B   24184.04059950  .00000038  00000+0  00000+0 0  9995
2 41550  55.3575 241.3690 0003090 263.9154  96.1363  1.70473957 50459
GSAT0207 (PRN E07)      
1 41859U 16069A   24185.46004696 -.00000027  00000+0  00000+0 0  9992
2 41859  55.0968 120.8655 0004999 306.8358  53.0708  1.70473881 47231
GSAT0212 (PRN E03)      
1 41860U 16069B   24189.42043311 -.00000019  00000+0  00000+0 0  9992
2 41860  55.0956 120.7521 0003837 335.1806  24.7690  1.70474109 47558
GSAT0213 (PRN E04)      
1 41861U 16069C   24187.44262849 -.00000028  00000+0  00000+0 0  9992
2 41861  55.0974 120.8136 0004804 289.8858  70.0186  1.70472777 47383
GSAT0214 (PRN E05)      
1 41862U 16069D   24188.76100390 -.00000023  00000+0  00000+0 0  9996
2 41862  55.0967 120.7707 0003918 294.7420  65.1808  1.70474113 47533
GSAT0215 (PRN E21)      
1 43055U 17079A   24189.83728234  .00000028  00000+0  00000+0 0  9990
2 43055  55.3325 241.0299 0003071 254.6358 105.4229  1.70474683 40897
GSAT0216 (PRN E25)      
1 43056U 17079B   24188.36923443  .00000033  00000+0  00000+0 0  9993
2 43056  55.3327 241.0700 0004728 266.8574  93.1855  1.70474438 40887
GSAT0217 (PRN E27)      
1 43057U 17079C   24188.58970510  .00000032  00000+0  00000+0 0  9994
2 43057  55.3360 241.0626 0001619 286.8895  73.1893  1.70474365 40874
GSAT0218 (PRN E31)      
1 43058U 17079D   24187.05001312  .00000038  00000+0  00000+0 0  9997
2 43058  55.3319 241.1029 0006126 265.0652  94.9626  1.70474387 40874
GSAT0221 (PRN E15)      
1 43564U 18060A   24188.12399182 -.00000100  00000+0  00000+0 0  9995
2 43564  57.3049   0.9576 0001949 292.8322  67.1527  1.70475975 37047
GSAT0222 (PRN E33)      
1 43565U 18060B   24188.92912696 -.00000100  00000+0  00000+0 0  9995
2 43565  57.3085   0.9379 0001838 215.6186 144.3733  1.70475744 37105
GSAT0219 (PRN E36)      
1 43566U 18060C   24184.45831486 -.00000092  00000+0  00000+0 0  9997
2 43566  57.3081   1.0599 0001342 320.5311  39.4744  1.70475824 37008
GSAT0220 (PRN E13)      
1 43567U 18060D   24188.19843621 -.00000100  00000+0  00000+0 0  9997
2 43567  57.3075   0.9593 0001474 300.0345  59.9562  1.70475891 37054
METEOSAT-11 (MSG-4)     
1 40732U 15034A   24189.26551238  .00000057  00000+0  00000+0 0  9995
2 40732   1.4327  69.5522 0001054 162.8193 158.1622  1.00269052   105
ELEKTRO-L 2             
1 41105U 15074A   24189.40394573 -.00000123  00000+0  00000+0 0  9992
2 41105   4.8927  79.2343 0001217 149.4550 188.0665  1.00270815 31383
INSAT-3DR               
1 41752U 16054A   24189.34982653 -.00000081  00000+0  00000+0 0  9997
2 41752   0.0599  91.0972 0010550 175.2963 219.3266  1.00271542 28704
GOES 16                 
1 41866U 16071A   24189.53496792 -.00000251  00000+0  00000+0 0  9996
2 41866   0.0790 250.0285 0000051 265.1795 248.1401  1.00270536 27986
GSAT-17                 
1 42815U 17040B   24189.42535330 -.00000262  00000+0  00000+0 0  9990
2 42815   0.0658  99.9460 0001613 157.0118 275.5068  1.00272124 25674
GOES 17                 
1 43226U 18022A   24189.67223927 -.00000094  00000+0  00000+0 0  9994
2 43226   0.0077 151.1919 0000858   7.2601 264.9484  1.00270723 23326
GPS BIIF-9  (PRN 26)    
1 40534U 15013A   24189.08119651  .00000031  00000+0  00000+0 0  9993
2 40534  53.3373 233.5729 0088093  29.7608 330.8203  2.00564362 67586
GPS BIIF-10 (PRN 08)    
1 40730U 15033A   24189.24302584 -.00000062  00000+0  00000+0 0  9995
2 40730  54.5780 296.2377 0094078  19.7804 340.6086  2.00566035 65755
GPS BIIF-11 (PRN 10)    
1 41019U 15062A   24188.80383966 -.00000065  00000+0  00000+0 0  9995
2 41019  56.4175  58.3279 0095543 224.8035 134.4851  2.00562548 63589
GPS BIIF-12 (PRN 32)    
1 41328U 16007A   24188.38563499 -.00000033  00000+0  00000+0 0  9997
2 41328  55.1332 117.6882 0079879 238.9231 120.2702  2.00561008 61586
